[{"OBJECT_NAME":"OCO 2","OBJECT_ID":"2014-035A","EPOCH":"2026-03-14T12:41:15.085248","MEAN_MOTION":14.57100826,"ECCENTRICITY":0.00013232,"INCLINATION":98.1999,"RA_OF_ASC_NODE":16.3031,"ARG_OF_PERICENTER":94.3495,"MEAN_ANOMALY":265.7854,"EPHEMERIS_TYPE":0,"CLASSIFICATION_TYPE":"U","NORAD_CAT_ID":40059,"ELEMENT_SET_NO":999,"REV_AT_EPOCH":62226,"BSTAR":0.00017216597,"MEAN_MOTION_DOT":7.3e-6,"MEAN_MOTION_DDOT":0},{"OBJECT_NAME":"BRITE-PL2 (HEWELIUSZ)","OBJECT_ID":"2014-049B","EPOCH":"2026-03-14T07:03:05.681664","MEAN_MOTION":14.94207926,"ECCENTRICITY":0.00151334,"INCLINATION":97.8979,"RA_OF_ASC_NODE":184.6506,"ARG_OF_PERICENTER":67.0924,"MEAN_ANOMALY":293.1891,"EPHEMERIS_TYPE":0,"CLASSIFICATION_TYPE":"U","NORAD_CAT_ID":40119,"ELEMENT_SET_NO":999,"REV_AT_EPOCH":62727,"BSTAR":0.00022652251,"MEAN_MOTION_DOT":2.373e-5,"MEAN_MOTION_DDOT":0},{"OBJECT_NAME":"MMS 1","OBJECT_ID":"2015-011A","EPOCH":"2026-03-14T14:00:01.999872","MEAN_MOTION":0.28230059,"ECCENTRICITY":0.84073982,"INCLINATION":70.7902,"RA_OF_ASC_NODE":350.1128,"ARG_OF_PERICENTER":165.3817,"MEAN_ANOMALY":9.1349,"EPHEMERIS_TYPE":0,"CLASSIFICATION_TYPE":"U","NORAD_CAT_ID":40482,"ELEMENT_SET_NO":999,"REV_AT_EPOCH":136,"BSTAR":0,"MEAN_MOTION_DOT":-1.942e-5,"MEAN_MOTION_DDOT":0},{"OBJECT_NAME":"MMS 2","OBJECT_ID":"2015-011B","EPOCH":"2026-03-14T14:00:01.999872","MEAN_MOTION":0.28229855,"ECCENTRICITY":0.84081375,"INCLINATION":70.7904,"RA_OF_ASC_NODE":350.115,"ARG_OF_PERICENTER":165.3878,"MEAN_ANOMALY":9.1187,"EPHEMERIS_TYPE":0,"CLASSIFICATION_TYPE":"U","NORAD_CAT_ID":40483,"ELEMENT_SET_NO":999,"REV_AT_EPOCH":136,"BSTAR":0,"MEAN_MOTION_DOT":-1.942e-5,"MEAN_MOTION_DDOT":0},{"OBJECT_NAME":"MMS 3","OBJECT_ID":"2015-011C","EPOCH":"2026-03-14T14:00:01.999872","MEAN_MOTION":0.28229926,"ECCENTRICITY":0.84074127,"INCLINATION":70.7928,"RA_OF_ASC_NODE":350.1197,"ARG_OF_PERICENTER":165.382,"MEAN_ANOMALY":9.1262,"EPHEMERIS_TYPE":0,"CLASSIFICATION_TYPE":"U","NORAD_CAT_ID":40484,"ELEMENT_SET_NO":999,"REV_AT_EPOCH":136,"BSTAR":0,"MEAN_MOTION_DOT":-1.942e-5,"MEAN_MOTION_DDOT":0},{"OBJECT_NAME":"MMS 4","OBJECT_ID":"2015-011D","EPOCH":"2026-03-14T14:00:01.999872","MEAN_MOTION":0.28229692,"ECCENTRICITY":0.84069273,"INCLINATION":70.7908,"RA_OF_ASC_NODE":350.1148,"ARG_OF_PERICENTER":165.3894,"MEAN_ANOMALY":9.112,"EPHEMERIS_TYPE":0,"CLASSIFICATION_TYPE":"U","NORAD_CAT_ID":40485,"ELEMENT_SET_NO":999,"REV_AT_EPOCH":136,"BSTAR":0,"MEAN_MOTION_DOT":-1.942e-5,"MEAN_MOTION_DDOT":0},{"OBJECT_NAME":"ASTROSAT","OBJECT_ID":"2015-052A","EPOCH":"2026-03-14T11:58:57.468864","MEAN_MOTION":14.82314483,"ECCENTRICITY":0.00075186,"INCLINATION":5.9965,"RA_OF_ASC_NODE":116.8239,"ARG_OF_PERICENTER":124.3809,"MEAN_ANOMALY":235.703,"EPHEMERIS_TYPE":0,"CLASSIFICATION_TYPE":"U","NORAD_CAT_ID":40930,"ELEMENT_SET_NO":999,"REV_AT_EPOCH":56575,"BSTAR":0.00018852341,"MEAN_MOTION_DOT":2.214e-5,"MEAN_MOTION_DDOT":0},{"OBJECT_NAME":"DAMPE","OBJECT_ID":"2015-078A","EPOCH":"2026-03-14T13:45:17.174016","MEAN_MOTION":15.3051891,"ECCENTRICITY":0.00136492,"INCLINATION":97.4587,"RA_OF_ASC_NODE":78.5844,"ARG_OF_PERICENTER":55.9821,"MEAN_ANOMALY":304.2714,"EPHEMERIS_TYPE":0,"CLASSIFICATION_TYPE":"U","NORAD_CAT_ID":41173,"ELEMENT_SET_NO":999,"REV_AT_EPOCH":57007,"BSTAR":6.3957614e-5,"MEAN_MOTION_DOT":1.813e-5,"MEAN_MOTION_DDOT":0},{"OBJECT_NAME":"PISAT","OBJECT_ID":"2016-059B","EPOCH":"2026-03-14T12:37:14.765376","MEAN_MOTION":14.68788005,"ECCENTRICITY":0.00299134,"INCLINATION":97.8192,"RA_OF_ASC_NODE":78.058,"ARG_OF_PERICENTER":145.6167,"MEAN_ANOMALY":214.6983,"EPHEMERIS_TYPE":0,"CLASSIFICATION_TYPE":"U","NORAD_CAT_ID":41784,"ELEMENT_SET_NO":999,"REV_AT_EPOCH":50584,"BSTAR":0.00024122141,"MEAN_MOTION_DOT":1.37e-5,"MEAN_MOTION_DDOT":0},{"OBJECT_NAME":"HXMT (HUIYAN)","OBJECT_ID":"2017-034A","EPOCH":"2026-03-14T10:49:20.022816","MEAN_MOTION":15.17539373,"ECCENTRICITY":0.00332776,"INCLINATION":43.0161,"RA_OF_ASC_NODE":350.2022,"ARG_OF_PERICENTER":264.9047,"MEAN_ANOMALY":94.8002,"EPHEMERIS_TYPE":0,"CLASSIFICATION_TYPE":"U","NORAD_CAT_ID":42758,"ELEMENT_SET_NO":999,"REV_AT_EPOCH":48326,"BSTAR":0.00036306798,"MEAN_MOTION_DOT":7.289e-5,"MEAN_MOTION_DDOT":0},{"OBJECT_NAME":"FLYING LAPTOP","OBJECT_ID":"2017-042G","EPOCH":"2026-03-14T15:30:16.369920","MEAN_MOTION":15.00553935,"ECCENTRICITY":0.00196324,"INCLINATION":97.4279,"RA_OF_ASC_NODE":233.0997,"ARG_OF_PERICENTER":79.8881,"MEAN_ANOMALY":280.4557,"EPHEMERIS_TYPE":0,"CLASSIFICATION_TYPE":"U","NORAD_CAT_ID":42831,"ELEMENT_SET_NO":999,"REV_AT_EPOCH":47227,"BSTAR":0.00022923156,"MEAN_MOTION_DOT":2.846e-5,"MEAN_MOTION_DDOT":0},{"OBJECT_NAME":"ZHANGHENG 1-01 (CSES-1)","OBJECT_ID":"2018-015C","EPOCH":"2026-03-14T06:14:35.732256","MEAN_MOTION":15.21136298,"ECCENTRICITY":0.00150995,"INCLINATION":97.6758,"RA_OF_ASC_NODE":237.0795,"ARG_OF_PERICENTER":227.8892,"MEAN_ANOMALY":132.106,"EPHEMERIS_TYPE":0,"CLASSIFICATION_TYPE":"U","NORAD_CAT_ID":43194,"ELEMENT_SET_NO":999,"REV_AT_EPOCH":45021,"BSTAR":0.00055111669,"MEAN_MOTION_DOT":0.00012243,"MEAN_MOTION_DDOT":0},{"OBJECT_NAME":"SALSAT","OBJECT_ID":"2020-068K","EPOCH":"2026-03-14T12:26:22.157664","MEAN_MOTION":15.28293668,"ECCENTRICITY":0.00080685,"INCLINATION":97.8858,"RA_OF_ASC_NODE":70.9296,"ARG_OF_PERICENTER":275.9056,"MEAN_ANOMALY":84.1263,"EPHEMERIS_TYPE":0,"CLASSIFICATION_TYPE":"U","NORAD_CAT_ID":46495,"ELEMENT_SET_NO":999,"REV_AT_EPOCH":30089,"BSTAR":0.00046003648,"MEAN_MOTION_DOT":0.00012617,"MEAN_MOTION_DDOT":0},{"OBJECT_NAME":"IXPE","OBJECT_ID":"2021-121A","EPOCH":"2026-03-14T16:00:01.999584","MEAN_MOTION":15.09286628,"ECCENTRICITY":0.00072663,"INCLINATION":0.2303,"RA_OF_ASC_NODE":312.2369,"ARG_OF_PERICENTER":85.3852,"MEAN_ANOMALY":218.3044,"EPHEMERIS_TYPE":0,"CLASSIFICATION_TYPE":"U","NORAD_CAT_ID":49954,"ELEMENT_SET_NO":999,"REV_AT_EPOCH":503,"BSTAR":0.00082652206,"MEAN_MOTION_DOT":0.00014511,"MEAN_MOTION_DDOT":0}]
